OBJECT_NAME,OBJECT_ID,EPOCH,MEAN_MOTION,ECCENTRICITY,INCLINATION,RA_OF_ASC_NODE,ARG_OF_PERICENTER,MEAN_ANOMALY,EPHEMERIS_TYPE,CLASSIFICATION_TYPE,NORAD_CAT_ID,ELEMENT_SET_NO,REV_AT_EPOCH,BSTAR,MEAN_MOTION_DOT,MEAN_MOTION_DDOT
KUZGTU 1 (RS47S),2023-091AV,2026-06-29T12:37:17.542272,15.30138204,.0011671,97.5064,245.1328,59.4218,300.8172,0,U,57217,999,16626,.40361E-3,.11722E-3,0
SONATE-2,2024-043Q,2026-06-29T09:31:13.570176,15.59630606,.0007231,97.5535,331.5497,155.9821,204.1774,0,U,59112,999,12979,.47296E-3,.37714E-3,0
MESAT1,2024-125G,2026-06-29T12:28:40.565280,15.64570537,.00107,97.2271,38.2940,161.5988,198.5660,0,U,60209,999,11149,.56144E-3,.5442E-3,0
OOV-CUBE (TUBSAT-30),2024-128F,2026-06-29T11:57:15.871968,15.02816667,.0043101,61.9924,182.6432,136.5049,223.9455,0,U,60240,999,10796,.14607E-3,.1788E-4,0
COLIBRI-S (RS67S),2024-199M,2026-06-29T12:54:48.073824,15.48226118,.0006919,97.2976,54.5082,220.5827,139.4908,0,U,61746,999,13932,.40278E-3,.21169E-3,0
HORS 3 (RS81S),2024-199U,2026-06-29T12:09:06.568128,15.55820699,.0004842,97.2963,56.5986,211.8735,148.2227,0,U,61753,999,13947,.49885E-3,.34474E-3,0
HORS 4 (RS82S),2024-199V,2026-06-29T11:49:36.172128,15.60838529,.0004852,97.2905,57.8682,196.9609,163.1487,0,U,61754,999,13956,.59654E-3,.49882E-3,0
SIT-2086,2024-199AF,2026-06-29T11:59:20.503104,15.53923968,.0006185,97.2919,57.0256,195.5649,164.5416,0,U,61764,999,13634,.50345E-3,.32465E-3,0
HYPERVIEW 1G (RS66S),2024-199AP,2026-06-29T08:51:21.610368,15.79418880,.0006687,97.2841,60.7329,181.0363,179.0892,0,U,61772,999,13659,.87595E-3,.160477E-2,0
ALTAIR (RS65S),2024-199AW,2026-06-29T13:06:03.657024,15.37256540,.0010813,97.3015,49.8163,259.2462,100.7565,0,U,61779,999,13901,.27883E-3,.10115E-3,0
ASRTU-1 (AO-123),2024-199AY,2026-06-29T11:30:40.387968,15.35846050,.0011914,97.2987,49.0403,263.3422,96.6466,0,U,61781,999,13581,.20061E-3,.6931E-4,0
SAMSAT-IONOSPHERE (RS75S),2024-199BB,2026-06-29T12:26:37.383072,15.58708351,.0007034,97.2928,56.7040,216.6501,143.4275,0,U,61784,999,13948,.58216E-3,.44896E-3,0
RTU MIREA 1 (RS51S),2024-199BC,2026-06-29T12:21:00.041184,15.62447963,.0007119,97.2916,57.5972,208.8834,151.2031,0,U,61785,999,13639,.61985E-3,.55222E-3,0
TEVEL2-4,2025-052D,2026-06-29T12:06:20.377728,15.35036217,.0004757,97.3895,76.9189,80.6436,279.5345,0,U,63213,999,7200,.50864E-3,.17234E-3,0
TEVEL2-5,2025-052E,2026-06-28T16:17:25.670112,15.34828420,.00047465,97.3896,76.0362,83.6484,276.5299,0,U,63214,999,7187,.52563493E-3,.17696E-3,0
TEVEL2-6,2025-052F,2026-06-28T16:35:33.601632,15.34794418,.00045995,97.3902,76.0332,84.2867,275.8901,0,U,63215,999,7187,.51063641E-3,.17169E-3,0
TEVEL2-1,2025-052H,2026-06-28T23:38:51.748224,15.34253524,.00049994,97.3868,75.9379,91.1261,269.0554,0,U,63217,999,7190,.51973547E-3,.1718E-3,0
TEVEL2-3,2025-052J,2026-06-29T12:01:49.334016,15.34330823,.0004842,97.3873,76.4778,91.2218,268.9580,0,U,63218,999,7198,.49566E-3,.16419E-3,0
TEVEL2-2,2025-052K,2026-06-28T15:49:37.369056,15.34253315,.00050154,97.3871,75.6148,92.1173,268.0645,0,U,63219,999,7185,.51245467E-3,.16937E-3,0
OTP-2,2025-052AB,2026-06-29T12:06:59.257728,15.24144802,.0008142,97.3861,72.7514,113.2791,246.9304,0,U,63235,999,7174,.32956E-3,.7955E-4,0
TEVEL2-9,2025-052AD,2026-06-28T15:38:36.082464,15.32242983,.00083031,97.3933,74.9572,100.5589,259.6589,0,U,63237,999,7178,.50741128E-3,.15749E-3,0
TEVEL2-7,2025-052AE,2026-06-28T22:56:57.595488,15.31946752,.00083921,97.3936,75.1722,99.7965,260.4224,0,U,63238,999,7182,.48125137E-3,.14794E-3,0
TEVEL2-8,2025-052AF,2026-06-28T23:09:00.510336,15.31932731,.00084499,97.3936,75.1570,100.4916,259.7278,0,U,63239,999,7182,.49211676E-3,.15124E-3,0
INNOSAT 16 (RS92S7),2025-155C,2026-06-29T12:43:51.304224,15.25583794,.0011871,97.4568,147.6199,135.3014,224.9182,0,U,64878,999,8255,.2291E-3,.5755E-4,0
GEOSCAN 6 (RS92S6),2025-155D,2026-06-29T12:58:11.328096,15.30374758,.0009619,97.4559,149.1418,125.4628,234.7511,0,U,64879,999,8265,.29689E-3,.8657E-4,0
GEOSCAN 1 (RS92S1),2025-155E,2026-06-29T12:54:40.074048,15.30998202,.0009543,97.4555,149.2983,125.6215,234.5916,0,U,64880,999,8266,.35092E-3,.10449E-3,0
239ALFEROV (RS61S),2025-155F,2026-06-29T11:45:08.152416,15.33264219,.000924,97.4555,149.8531,124.2084,236.0035,0,U,64881,999,8269,.41E-3,.13123E-3,0
GEOSCAN 2 (RS92S2),2025-155Q,2026-06-29T12:42:27.216288,15.31259235,.0009096,97.4554,149.4471,114.5858,245.6331,0,U,64890,999,8267,.33626E-3,.10089E-3,0
GEOSCAN 5 (RS92S5),2025-155R,2026-06-29T12:59:38.129856,15.33580244,.0008135,97.4547,150.0475,127.4957,232.7026,0,U,64891,999,8271,.40317E-3,.13029E-3,0
GEOSCAN 4 (RS92S4),2025-155S,2026-06-29T12:35:03.510816,15.33740929,.0008168,97.4551,150.0822,127.3355,232.8633,0,U,64892,999,8271,.42741E-3,.13889E-3,0
