KUZGTU 1 (RS47S)        
1 57217U 23091AV  26180.52589748  .00011722  00000+0  40361-3 0  9991
2 57217  97.5064 245.1328 0011671  59.4218 300.8172 15.30138204166264
SONATE-2                
1 59112U 24043Q   26180.39668484  .00037714  00000+0  47296-3 0  9998
2 59112  97.5535 331.5497 0007231 155.9821 204.1774 15.59630606129794
MESAT1                  
1 60209U 24125G   26180.51991395  .00054420  00000+0  56144-3 0  9997
2 60209  97.2271  38.2940 0010700 161.5988 198.5660 15.64570537111493
OOV-CUBE (TUBSAT-30)    
1 60240U 24128F   26180.49810037  .00001788  00000+0  14607-3 0  9992
2 60240  61.9924 182.6432 0043101 136.5049 223.9455 15.02816667107963
COLIBRI-S (RS67S)       
1 61746U 24199M   26180.53805641  .00021169  00000+0  40278-3 0  9990
2 61746  97.2976  54.5082 0006919 220.5827 139.4908 15.48226118139321
HORS 3 (RS81S)          
1 61753U 24199U   26180.50632602  .00034474  00000+0  49885-3 0  9996
2 61753  97.2963  56.5986 0004842 211.8735 148.2227 15.55820699139474
HORS 4 (RS82S)          
1 61754U 24199V   26180.49277977  .00049882  00000+0  59654-3 0  9999
2 61754  97.2905  57.8682 0004852 196.9609 163.1487 15.60838529139563
SIT-2086                
1 61764U 24199AF  26180.49954286  .00032465  00000+0  50345-3 0  9992
2 61764  97.2919  57.0256 0006185 195.5649 164.5416 15.53923968136342
HYPERVIEW 1G (RS66S)    
1 61772U 24199AP  26180.36900012  .00160477  00000+0  87595-3 0  9997
2 61772  97.2841  60.7329 0006687 181.0363 179.0892 15.79418880136593
ALTAIR (RS65S)          
1 61779U 24199AW  26180.54587566  .00010115  00000+0  27883-3 0  9996
2 61779  97.3015  49.8163 0010813 259.2462 100.7565 15.37256540139017
ASRTU-1 (AO-123)        
1 61781U 24199AY  26180.47963412  .00006931  00000+0  20061-3 0  9991
2 61781  97.2987  49.0403 0011914 263.3422  96.6466 15.35846050135817
SAMSAT-IONOSPHERE (RS7*)
1 61784U 24199BB  26180.51848823  .00044896  00000+0  58216-3 0  9992
2 61784  97.2928  56.7040 0007034 216.6501 143.4275 15.58708351139486
RTU MIREA 1 (RS51S)     
1 61785U 24199BC  26180.51458381  .00055222  00000+0  61985-3 0  9991
2 61785  97.2916  57.5972 0007119 208.8834 151.2031 15.62447963136391
TEVEL2-4                
1 63213U 25052D   26180.50440252  .00017234  00000+0  50864-3 0  9990
2 63213  97.3895  76.9189 0004757  80.6436 279.5345 15.35036217 72005
TEVEL2-5                
1 63214U 25052E   26179.67876933  .00017696  00000+0  52563-3 0  9996
2 63214  97.3896  76.0362 0004746  83.6484 276.5299 15.34828420 71878
TEVEL2-6                
1 63215U 25052F   26179.69136113  .00017169  00000+0  51064-3 0  9998
2 63215  97.3902  76.0332 0004599  84.2867 275.8901 15.34794418 71873
TEVEL2-1                
1 63217U 25052H   26179.98532116  .00017180  00000+0  51974-3 0  9998
2 63217  97.3868  75.9379 0004999  91.1261 269.0554 15.34253524 71905
TEVEL2-3                
1 63218U 25052J   26180.50126544  .00016419  00000+0  49566-3 0  9991
2 63218  97.3873  76.4778 0004842  91.2218 268.9580 15.34330823 71984
TEVEL2-2                
1 63219U 25052K   26179.65946029  .00016937  00000+0  51245-3 0  9996
2 63219  97.3871  75.6148 0005015  92.1173 268.0645 15.34253315 71857
OTP-2                   
1 63235U 25052AB  26180.50485252  .00007955  00000+0  32956-3 0  9994
2 63235  97.3861  72.7514 0008142 113.2791 246.9304 15.24144802 71748
TEVEL2-9                
1 63237U 25052AD  26179.65180651  .00015749  00000+0  50741-3 0  9997
2 63237  97.3933  74.9572 0008303 100.5589 259.6589 15.32242983 71789
TEVEL2-7                
1 63238U 25052AE  26179.95622217  .00014794  00000+0  48125-3 0  9992
2 63238  97.3936  75.1722 0008392  99.7965 260.4224 15.31946752 71823
TEVEL2-8                
1 63239U 25052AF  26179.96458924  .00015124  00000+0  49212-3 0  9992
2 63239  97.3936  75.1570 0008449 100.4916 259.7278 15.31932731 71826
INNOSAT 16 (RS92S7)     
1 64878U 25155C   26180.53045491  .00005755  00000+0  22910-3 0  9997
2 64878  97.4568 147.6199 0011871 135.3014 224.9182 15.25583794 82553
GEOSCAN 6 (RS92S6)      
1 64879U 25155D   26180.54040889  .00008657  00000+0  29689-3 0  9999
2 64879  97.4559 149.1418 0009619 125.4628 234.7511 15.30374758 82653
GEOSCAN 1 (RS92S1)      
1 64880U 25155E   26180.53796382  .00010449  00000+0  35092-3 0  9993
2 64880  97.4555 149.2983 0009543 125.6215 234.5916 15.30998202 82663
239ALFEROV (RS61S)      
1 64881U 25155F   26180.48967769  .00013123  00000+0  41000-3 0  9995
2 64881  97.4555 149.8531 0009240 124.2084 236.0035 15.33264219 82691
GEOSCAN 2 (RS92S2)      
1 64890U 25155Q   26180.52948167  .00010089  00000+0  33626-3 0  9994
2 64890  97.4554 149.4471 0009096 114.5858 245.6331 15.31259235 82672
GEOSCAN 5 (RS92S5)      
1 64891U 25155R   26180.54141354  .00013029  00000+0  40317-3 0  9992
2 64891  97.4547 150.0475 0008135 127.4957 232.7026 15.33580244 82715
GEOSCAN 4 (RS92S4)      
1 64892U 25155S   26180.52434619  .00013889  00000+0  42741-3 0  9997
2 64892  97.4551 150.0822 0008168 127.3355 232.8633 15.33740929 82717
